GLOBALSTAR M001         
1 25162U 98008A   24337.54671500 -.00000020  00000+0  58383-3 0  9990
2 25162  52.0005 185.5597 0001516 147.7116 249.6839 12.38203045219359
GLOBALSTAR M004         
1 25163U 98008B   24337.34144615 -.00000047  00000+0  31236-3 0  9998
2 25163  52.0009 294.6751 0002523 210.0926 314.9290 12.63380526236804
GLOBALSTAR M002         
1 25164U 98008C   24337.43785889 -.00000061  00000+0  30025-3 0  9994
2 25164  52.0044  13.5191 0001589 146.7570 213.3350 11.61506135161204
GLOBALSTAR M003         
1 25165U 98008D   24337.34601104  .00000023  00000+0  11978-2 0  9994
2 25165  51.9993 353.6795 0007898 256.1308 116.7860 12.12057034209355
GLOBALSTAR M014         
1 25306U 98023A   24337.31609701 -.00000044  00000+0  62664-3 0  9999
2 25306  51.9851 301.1895 0001356   8.4228 140.8819 11.65475623168212
GLOBALSTAR M006         
1 25307U 98023B   24337.54573023 -.00000079  00000+0 -63074-4 0  9998
2 25307  51.9966 345.7320 0003640 108.9559  37.6128 11.58169858194046
GLOBALSTAR M015         
1 25308U 98023C   24337.57959510 -.00000047  00000+0  59730-3 0  9998
2 25308  51.9828  75.1053 0013263  88.7755 284.8532 11.48855521171482
GLOBALSTAR M008         
1 25309U 98023D   24337.48161624 -.00000028  00000+0  53828-3 0  9991
2 25309  51.9989  48.3486 0003129 123.2134 249.4015 12.36057534213520
